{
  "type": "FeatureCollection",
  "features": [
    {
      "type": "Feature",
      "properties": {
        "Area_ID": "R-134",
        "altitude": "SFC-FL350",
        "status": "pending",
        "note": "今後変更予定（参考・非公式）"
      },
      "geometry": {
        "type": "Polygon",
        "coordinates": [
          [
            [
              130.585,
              34.853056
            ],
            [
              130.866944,
              34.725278
            ],
            [
              130.661389,
              34.415
            ],
            [
              130.398611,
              34.341111
            ],
            [
              130.210833,
              34.6775
            ],
            [
              130.332222,
              34.859722
            ],
            [
              130.530833,
              34.769722
            ],
            [
              130.585,
              34.853056
            ]
          ]
        ]
      }
    },
    {
      "type": "Feature",
      "properties": {
        "Area_ID": "N-1",
        "altitude": "SFC-UNL",
        "status": "pending",
        "note": "今後変更予定（参考・非公式）"
      },
      "geometry": {
        "type": "Polygon",
        "coordinates": [
          [
            [
              129.976389,
              35.092778
            ],
            [
              129.671111,
              35.058056
            ],
            [
              129.450556,
              34.889167
            ],
            [
              129.664444,
              34.669722
            ],
            [
              129.862778,
              34.502778
            ],
            [
              129.92,
              34.419722
            ],
            [
              129.931111,
              34.419722
            ],
            [
              130.214444,
              34.286389
            ],
            [
              130.398611,
              34.341111
            ],
            [
              130.210833,
              34.6775
            ],
            [
              130.332222,
              34.859722
            ],
            [
              130.031944,
              34.995
            ],
            [
              129.976389,
              35.092778
            ]
          ]
        ]
      }
    },
    {
      "type": "Feature",
      "properties": {
        "Area_ID": "N-21S",
        "altitude": "SFC-FL800",
        "status": "pending",
        "note": "今後変更予定（参考・非公式）"
      },
      "geometry": {
        "type": "Polygon",
        "coordinates": [
          [
            [
              129.898611,
              35.229444
            ],
            [
              129.976389,
              35.092778
            ],
            [
              129.671111,
              35.058056
            ],
            [
              129.898611,
              35.229444
            ]
          ]
        ]
      }
    }
  ]
}
